<?xml version="1.0" encoding="UTF-8"?>
<gpx version="1.1" creator="bikeathome" xmlns="http://www.topografix.com/GPX/1/1">
  <metadata>
    <name>Demo Climb</name>
    <desc>Synthetic demo route: rolling approach, sustained climb, fast descent. Not a real road.</desc>
  </metadata>
  <trk>
    <name>Demo Climb</name>
    <trkseg>
      <trkpt lat="46.500000" lon="11.350000"><ele>620.0</ele></trkpt>
      <trkpt lat="46.500162" lon="11.350118"><ele>620.2</ele></trkpt>
      <trkpt lat="46.500324" lon="11.350235"><ele>620.5</ele></trkpt>
      <trkpt lat="46.500486" lon="11.350353"><ele>620.8</ele></trkpt>
      <trkpt lat="46.500648" lon="11.350470"><ele>621.1</ele></trkpt>
      <trkpt lat="46.500809" lon="11.350588"><ele>621.4</ele></trkpt>
      <trkpt lat="46.500971" lon="11.350706"><ele>621.7</ele></trkpt>
      <trkpt lat="46.501133" lon="11.350823"><ele>622.0</ele></trkpt>
      <trkpt lat="46.501295" lon="11.350941"><ele>622.3</ele></trkpt>
      <trkpt lat="46.501457" lon="11.351058"><ele>622.7</ele></trkpt>
      <trkpt lat="46.501619" lon="11.351176"><ele>623.0</ele></trkpt>
      <trkpt lat="46.501781" lon="11.351293"><ele>623.4</ele></trkpt>
      <trkpt lat="46.501943" lon="11.351411"><ele>623.7</ele></trkpt>
      <trkpt lat="46.502104" lon="11.351529"><ele>624.1</ele></trkpt>
      <trkpt lat="46.502266" lon="11.351646"><ele>624.5</ele></trkpt>
      <trkpt lat="46.502428" lon="11.351764"><ele>624.9</ele></trkpt>
      <trkpt lat="46.502590" lon="11.351881"><ele>625.3</ele></trkpt>
      <trkpt lat="46.502752" lon="11.351999"><ele>625.7</ele></trkpt>
      <trkpt lat="46.502914" lon="11.352117"><ele>626.1</ele></trkpt>
      <trkpt lat="46.503076" lon="11.352234"><ele>626.5</ele></trkpt>
      <trkpt lat="46.503238" lon="11.352352"><ele>626.9</ele></trkpt>
      <trkpt lat="46.503399" lon="11.352469"><ele>627.3</ele></trkpt>
      <trkpt lat="46.503561" lon="11.352587"><ele>627.7</ele></trkpt>
      <trkpt lat="46.503723" lon="11.352705"><ele>628.1</ele></trkpt>
      <trkpt lat="46.503885" lon="11.352822"><ele>628.5</ele></trkpt>
      <trkpt lat="46.504047" lon="11.352940"><ele>628.9</ele></trkpt>
      <trkpt lat="46.504209" lon="11.353057"><ele>629.2</ele></trkpt>
      <trkpt lat="46.504371" lon="11.353175"><ele>629.6</ele></trkpt>
      <trkpt lat="46.504533" lon="11.353293"><ele>630.0</ele></trkpt>
      <trkpt lat="46.504694" lon="11.353410"><ele>630.4</ele></trkpt>
      <trkpt lat="46.504856" lon="11.353528"><ele>630.7</ele></trkpt>
      <trkpt lat="46.505018" lon="11.353645"><ele>631.1</ele></trkpt>
      <trkpt lat="46.505180" lon="11.353763"><ele>631.4</ele></trkpt>
      <trkpt lat="46.505342" lon="11.353881"><ele>631.8</ele></trkpt>
      <trkpt lat="46.505504" lon="11.353998"><ele>632.1</ele></trkpt>
      <trkpt lat="46.505666" lon="11.354116"><ele>632.4</ele></trkpt>
      <trkpt lat="46.505828" lon="11.354233"><ele>632.7</ele></trkpt>
      <trkpt lat="46.505989" lon="11.354351"><ele>633.0</ele></trkpt>
      <trkpt lat="46.506151" lon="11.354469"><ele>633.3</ele></trkpt>
      <trkpt lat="46.506313" lon="11.354586"><ele>633.6</ele></trkpt>
      <trkpt lat="46.506475" lon="11.354704"><ele>633.8</ele></trkpt>
      <trkpt lat="46.506637" lon="11.354822"><ele>634.1</ele></trkpt>
      <trkpt lat="46.506799" lon="11.354939"><ele>634.3</ele></trkpt>
      <trkpt lat="46.506961" lon="11.355057"><ele>634.5</ele></trkpt>
      <trkpt lat="46.507123" lon="11.355174"><ele>634.7</ele></trkpt>
      <trkpt lat="46.507285" lon="11.355292"><ele>634.9</ele></trkpt>
      <trkpt lat="46.507446" lon="11.355410"><ele>635.1</ele></trkpt>
      <trkpt lat="46.507608" lon="11.355527"><ele>635.3</ele></trkpt>
      <trkpt lat="46.507770" lon="11.355645"><ele>635.4</ele></trkpt>
      <trkpt lat="46.507932" lon="11.355762"><ele>635.6</ele></trkpt>
      <trkpt lat="46.508094" lon="11.355880"><ele>635.7</ele></trkpt>
      <trkpt lat="46.508256" lon="11.355998"><ele>635.8</ele></trkpt>
      <trkpt lat="46.508418" lon="11.356115"><ele>636.0</ele></trkpt>
      <trkpt lat="46.508580" lon="11.356233"><ele>636.1</ele></trkpt>
      <trkpt lat="46.508741" lon="11.356351"><ele>636.2</ele></trkpt>
      <trkpt lat="46.508903" lon="11.356468"><ele>636.3</ele></trkpt>
      <trkpt lat="46.509065" lon="11.356586"><ele>636.4</ele></trkpt>
      <trkpt lat="46.509227" lon="11.356703"><ele>636.5</ele></trkpt>
      <trkpt lat="46.509389" lon="11.356821"><ele>636.5</ele></trkpt>
      <trkpt lat="46.509551" lon="11.356939"><ele>636.6</ele></trkpt>
      <trkpt lat="46.509713" lon="11.357056"><ele>636.7</ele></trkpt>
      <trkpt lat="46.509875" lon="11.357174"><ele>636.8</ele></trkpt>
      <trkpt lat="46.510036" lon="11.357292"><ele>636.9</ele></trkpt>
      <trkpt lat="46.510198" lon="11.357409"><ele>637.0</ele></trkpt>
      <trkpt lat="46.510360" lon="11.357527"><ele>637.0</ele></trkpt>
      <trkpt lat="46.510522" lon="11.357644"><ele>637.1</ele></trkpt>
      <trkpt lat="46.510684" lon="11.357762"><ele>637.2</ele></trkpt>
      <trkpt lat="46.510846" lon="11.357880"><ele>637.3</ele></trkpt>
      <trkpt lat="46.511008" lon="11.357997"><ele>637.4</ele></trkpt>
      <trkpt lat="46.511170" lon="11.358115"><ele>637.5</ele></trkpt>
      <trkpt lat="46.511331" lon="11.358233"><ele>637.6</ele></trkpt>
      <trkpt lat="46.511493" lon="11.358350"><ele>637.8</ele></trkpt>
      <trkpt lat="46.511655" lon="11.358468"><ele>637.9</ele></trkpt>
      <trkpt lat="46.511817" lon="11.358585"><ele>638.0</ele></trkpt>
      <trkpt lat="46.511979" lon="11.358703"><ele>638.2</ele></trkpt>
      <trkpt lat="46.512141" lon="11.358821"><ele>638.3</ele></trkpt>
      <trkpt lat="46.512303" lon="11.358938"><ele>638.5</ele></trkpt>
      <trkpt lat="46.512465" lon="11.359056"><ele>638.7</ele></trkpt>
      <trkpt lat="46.512626" lon="11.359174"><ele>638.9</ele></trkpt>
      <trkpt lat="46.512788" lon="11.359291"><ele>639.1</ele></trkpt>
      <trkpt lat="46.512950" lon="11.359409"><ele>639.3</ele></trkpt>
      <trkpt lat="46.513112" lon="11.359875"><ele>639.8</ele></trkpt>
      <trkpt lat="46.513274" lon="11.360338"><ele>640.3</ele></trkpt>
      <trkpt lat="46.513436" lon="11.360796"><ele>640.9</ele></trkpt>
      <trkpt lat="46.513598" lon="11.361248"><ele>641.5</ele></trkpt>
      <trkpt lat="46.513760" lon="11.361690"><ele>642.1</ele></trkpt>
      <trkpt lat="46.513921" lon="11.362120"><ele>642.8</ele></trkpt>
      <trkpt lat="46.514083" lon="11.362536"><ele>643.4</ele></trkpt>
      <trkpt lat="46.514245" lon="11.362936"><ele>644.1</ele></trkpt>
      <trkpt lat="46.514407" lon="11.363318"><ele>644.8</ele></trkpt>
      <trkpt lat="46.514569" lon="11.363681"><ele>645.4</ele></trkpt>
      <trkpt lat="46.514731" lon="11.364022"><ele>646.0</ele></trkpt>
      <trkpt lat="46.514893" lon="11.364340"><ele>648.2</ele></trkpt>
      <trkpt lat="46.515055" lon="11.364633"><ele>650.3</ele></trkpt>
      <trkpt lat="46.515217" lon="11.364901"><ele>652.4</ele></trkpt>
      <trkpt lat="46.515378" lon="11.365142"><ele>654.4</ele></trkpt>
      <trkpt lat="46.515540" lon="11.365356"><ele>656.2</ele></trkpt>
      <trkpt lat="46.515702" lon="11.365541"><ele>658.1</ele></trkpt>
      <trkpt lat="46.515864" lon="11.365698"><ele>659.8</ele></trkpt>
      <trkpt lat="46.516026" lon="11.365826"><ele>661.5</ele></trkpt>
      <trkpt lat="46.516188" lon="11.365925"><ele>663.1</ele></trkpt>
      <trkpt lat="46.516350" lon="11.365995"><ele>664.7</ele></trkpt>
      <trkpt lat="46.516512" lon="11.366036"><ele>666.2</ele></trkpt>
      <trkpt lat="46.516673" lon="11.366049"><ele>667.7</ele></trkpt>
      <trkpt lat="46.516835" lon="11.366035"><ele>669.3</ele></trkpt>
      <trkpt lat="46.516997" lon="11.365995"><ele>670.9</ele></trkpt>
      <trkpt lat="46.517159" lon="11.365929"><ele>672.5</ele></trkpt>
      <trkpt lat="46.517321" lon="11.365839"><ele>674.3</ele></trkpt>
      <trkpt lat="46.517483" lon="11.365727"><ele>676.1</ele></trkpt>
      <trkpt lat="46.517645" lon="11.365594"><ele>677.9</ele></trkpt>
      <trkpt lat="46.517807" lon="11.365441"><ele>679.9</ele></trkpt>
      <trkpt lat="46.517968" lon="11.365271"><ele>681.9</ele></trkpt>
      <trkpt lat="46.518130" lon="11.365086"><ele>684.1</ele></trkpt>
      <trkpt lat="46.518292" lon="11.364888"><ele>686.3</ele></trkpt>
      <trkpt lat="46.518454" lon="11.364678"><ele>688.6</ele></trkpt>
      <trkpt lat="46.518616" lon="11.364459"><ele>690.9</ele></trkpt>
      <trkpt lat="46.518778" lon="11.364235"><ele>693.3</ele></trkpt>
      <trkpt lat="46.518940" lon="11.364006"><ele>695.8</ele></trkpt>
      <trkpt lat="46.519102" lon="11.363775"><ele>698.2</ele></trkpt>
      <trkpt lat="46.519263" lon="11.363545"><ele>700.7</ele></trkpt>
      <trkpt lat="46.519425" lon="11.363318"><ele>703.2</ele></trkpt>
      <trkpt lat="46.519587" lon="11.363097"><ele>705.6</ele></trkpt>
      <trkpt lat="46.519749" lon="11.362883"><ele>708.0</ele></trkpt>
      <trkpt lat="46.519911" lon="11.362680"><ele>710.4</ele></trkpt>
      <trkpt lat="46.520073" lon="11.362489"><ele>712.7</ele></trkpt>
      <trkpt lat="46.520235" lon="11.362313"><ele>715.0</ele></trkpt>
      <trkpt lat="46.520397" lon="11.362153"><ele>717.1</ele></trkpt>
      <trkpt lat="46.520558" lon="11.362012"><ele>719.2</ele></trkpt>
      <trkpt lat="46.520720" lon="11.361891"><ele>721.3</ele></trkpt>
      <trkpt lat="46.520882" lon="11.361792"><ele>723.2</ele></trkpt>
      <trkpt lat="46.521044" lon="11.361717"><ele>725.1</ele></trkpt>
      <trkpt lat="46.521206" lon="11.361666"><ele>726.9</ele></trkpt>
      <trkpt lat="46.521368" lon="11.361642"><ele>728.7</ele></trkpt>
      <trkpt lat="46.521530" lon="11.361644"><ele>730.5</ele></trkpt>
      <trkpt lat="46.521692" lon="11.361674"><ele>732.3</ele></trkpt>
      <trkpt lat="46.521854" lon="11.361732"><ele>734.1</ele></trkpt>
      <trkpt lat="46.522015" lon="11.361820"><ele>736.0</ele></trkpt>
      <trkpt lat="46.522177" lon="11.361936"><ele>738.0</ele></trkpt>
      <trkpt lat="46.522339" lon="11.362081"><ele>740.1</ele></trkpt>
      <trkpt lat="46.522501" lon="11.362255"><ele>742.2</ele></trkpt>
      <trkpt lat="46.522663" lon="11.362458"><ele>744.5</ele></trkpt>
      <trkpt lat="46.522825" lon="11.362688"><ele>746.9</ele></trkpt>
      <trkpt lat="46.522987" lon="11.362946"><ele>749.4</ele></trkpt>
      <trkpt lat="46.523149" lon="11.363229"><ele>752.1</ele></trkpt>
      <trkpt lat="46.523310" lon="11.363537"><ele>754.9</ele></trkpt>
      <trkpt lat="46.523472" lon="11.363870"><ele>757.7</ele></trkpt>
      <trkpt lat="46.523634" lon="11.364224"><ele>760.6</ele></trkpt>
      <trkpt lat="46.523796" lon="11.364598"><ele>763.7</ele></trkpt>
      <trkpt lat="46.523958" lon="11.364992"><ele>766.7</ele></trkpt>
      <trkpt lat="46.524120" lon="11.365402"><ele>769.8</ele></trkpt>
      <trkpt lat="46.524282" lon="11.365827"><ele>772.9</ele></trkpt>
      <trkpt lat="46.524444" lon="11.366264"><ele>776.0</ele></trkpt>
      <trkpt lat="46.524605" lon="11.366712"><ele>779.1</ele></trkpt>
      <trkpt lat="46.524767" lon="11.367168"><ele>782.2</ele></trkpt>
      <trkpt lat="46.524929" lon="11.367630"><ele>785.2</ele></trkpt>
      <trkpt lat="46.525091" lon="11.368095"><ele>788.1</ele></trkpt>
      <trkpt lat="46.525253" lon="11.368561"><ele>790.9</ele></trkpt>
      <trkpt lat="46.525415" lon="11.369026"><ele>793.6</ele></trkpt>
      <trkpt lat="46.525577" lon="11.369487"><ele>796.3</ele></trkpt>
      <trkpt lat="46.525739" lon="11.369941"><ele>798.8</ele></trkpt>
      <trkpt lat="46.525900" lon="11.370387"><ele>801.2</ele></trkpt>
      <trkpt lat="46.526062" lon="11.370822"><ele>803.4</ele></trkpt>
      <trkpt lat="46.526224" lon="11.371244"><ele>805.6</ele></trkpt>
      <trkpt lat="46.526386" lon="11.371651"><ele>807.6</ele></trkpt>
      <trkpt lat="46.526548" lon="11.372041"><ele>809.5</ele></trkpt>
      <trkpt lat="46.526710" lon="11.372412"><ele>811.2</ele></trkpt>
      <trkpt lat="46.526872" lon="11.372762"><ele>812.9</ele></trkpt>
      <trkpt lat="46.527034" lon="11.373089"><ele>814.4</ele></trkpt>
      <trkpt lat="46.527195" lon="11.373392"><ele>815.8</ele></trkpt>
      <trkpt lat="46.527357" lon="11.373671"><ele>817.1</ele></trkpt>
      <trkpt lat="46.527519" lon="11.373923"><ele>818.3</ele></trkpt>
      <trkpt lat="46.527681" lon="11.374148"><ele>819.5</ele></trkpt>
      <trkpt lat="46.527843" lon="11.374344"><ele>820.5</ele></trkpt>
      <trkpt lat="46.528005" lon="11.374513"><ele>821.5</ele></trkpt>
      <trkpt lat="46.528167" lon="11.374652"><ele>822.4</ele></trkpt>
      <trkpt lat="46.528329" lon="11.374762"><ele>823.2</ele></trkpt>
      <trkpt lat="46.528491" lon="11.374844"><ele>824.1</ele></trkpt>
      <trkpt lat="46.528652" lon="11.374897"><ele>824.8</ele></trkpt>
      <trkpt lat="46.528814" lon="11.374921"><ele>825.6</ele></trkpt>
      <trkpt lat="46.528976" lon="11.374918"><ele>826.3</ele></trkpt>
      <trkpt lat="46.529138" lon="11.374888"><ele>827.1</ele></trkpt>
      <trkpt lat="46.529300" lon="11.374832"><ele>827.8</ele></trkpt>
      <trkpt lat="46.529462" lon="11.374752"><ele>828.6</ele></trkpt>
      <trkpt lat="46.529624" lon="11.374648"><ele>829.4</ele></trkpt>
      <trkpt lat="46.529786" lon="11.374523"><ele>830.2</ele></trkpt>
      <trkpt lat="46.529947" lon="11.374378"><ele>831.1</ele></trkpt>
      <trkpt lat="46.530109" lon="11.374215"><ele>831.9</ele></trkpt>
      <trkpt lat="46.530271" lon="11.374035"><ele>832.8</ele></trkpt>
      <trkpt lat="46.530433" lon="11.373842"><ele>833.8</ele></trkpt>
      <trkpt lat="46.530595" lon="11.373636"><ele>834.7</ele></trkpt>
      <trkpt lat="46.530757" lon="11.373421"><ele>835.7</ele></trkpt>
      <trkpt lat="46.530919" lon="11.373199"><ele>836.7</ele></trkpt>
      <trkpt lat="46.531081" lon="11.372971"><ele>837.7</ele></trkpt>
      <trkpt lat="46.531242" lon="11.372741"><ele>838.8</ele></trkpt>
      <trkpt lat="46.531404" lon="11.372510"><ele>839.8</ele></trkpt>
      <trkpt lat="46.531566" lon="11.372282"><ele>840.9</ele></trkpt>
      <trkpt lat="46.531728" lon="11.372058"><ele>842.0</ele></trkpt>
      <trkpt lat="46.531890" lon="11.371841"><ele>843.0</ele></trkpt>
      <trkpt lat="46.532052" lon="11.371633"><ele>844.1</ele></trkpt>
      <trkpt lat="46.532214" lon="11.371437"><ele>845.1</ele></trkpt>
      <trkpt lat="46.532376" lon="11.371255"><ele>846.2</ele></trkpt>
      <trkpt lat="46.532537" lon="11.371088"><ele>847.2</ele></trkpt>
      <trkpt lat="46.532699" lon="11.370940"><ele>848.2</ele></trkpt>
      <trkpt lat="46.532861" lon="11.370810"><ele>849.2</ele></trkpt>
      <trkpt lat="46.533023" lon="11.370703"><ele>850.1</ele></trkpt>
      <trkpt lat="46.533185" lon="11.370618"><ele>851.1</ele></trkpt>
      <trkpt lat="46.533347" lon="11.370557"><ele>852.0</ele></trkpt>
      <trkpt lat="46.533509" lon="11.370522"><ele>853.0</ele></trkpt>
      <trkpt lat="46.533671" lon="11.370513"><ele>853.9</ele></trkpt>
      <trkpt lat="46.533832" lon="11.370532"><ele>854.9</ele></trkpt>
      <trkpt lat="46.533994" lon="11.370580"><ele>855.8</ele></trkpt>
      <trkpt lat="46.534156" lon="11.370655"><ele>856.9</ele></trkpt>
      <trkpt lat="46.534318" lon="11.370760"><ele>858.0</ele></trkpt>
      <trkpt lat="46.534480" lon="11.370894"><ele>859.1</ele></trkpt>
      <trkpt lat="46.534642" lon="11.371057"><ele>860.4</ele></trkpt>
      <trkpt lat="46.534804" lon="11.371248"><ele>861.8</ele></trkpt>
      <trkpt lat="46.534966" lon="11.371467"><ele>863.3</ele></trkpt>
      <trkpt lat="46.535128" lon="11.371714"><ele>864.9</ele></trkpt>
      <trkpt lat="46.535289" lon="11.371987"><ele>866.6</ele></trkpt>
      <trkpt lat="46.535451" lon="11.372286"><ele>868.5</ele></trkpt>
      <trkpt lat="46.535613" lon="11.372609"><ele>870.5</ele></trkpt>
      <trkpt lat="46.535775" lon="11.372955"><ele>872.7</ele></trkpt>
      <trkpt lat="46.535937" lon="11.373321"><ele>875.1</ele></trkpt>
      <trkpt lat="46.536099" lon="11.373708"><ele>877.5</ele></trkpt>
      <trkpt lat="46.536261" lon="11.374111"><ele>880.2</ele></trkpt>
      <trkpt lat="46.536423" lon="11.374531"><ele>883.0</ele></trkpt>
      <trkpt lat="46.536584" lon="11.374964"><ele>885.9</ele></trkpt>
      <trkpt lat="46.536746" lon="11.375408"><ele>889.0</ele></trkpt>
      <trkpt lat="46.536908" lon="11.375861"><ele>892.3</ele></trkpt>
      <trkpt lat="46.537070" lon="11.376321"><ele>895.6</ele></trkpt>
      <trkpt lat="46.537232" lon="11.376785"><ele>899.0</ele></trkpt>
      <trkpt lat="46.537394" lon="11.377251"><ele>902.6</ele></trkpt>
      <trkpt lat="46.537556" lon="11.377717"><ele>906.2</ele></trkpt>
      <trkpt lat="46.537718" lon="11.378180"><ele>909.8</ele></trkpt>
      <trkpt lat="46.537879" lon="11.378637"><ele>913.5</ele></trkpt>
      <trkpt lat="46.538041" lon="11.379087"><ele>917.1</ele></trkpt>
      <trkpt lat="46.538203" lon="11.379527"><ele>920.8</ele></trkpt>
      <trkpt lat="46.538365" lon="11.379955"><ele>924.4</ele></trkpt>
      <trkpt lat="46.538527" lon="11.380368"><ele>928.0</ele></trkpt>
      <trkpt lat="46.538689" lon="11.380765"><ele>931.4</ele></trkpt>
      <trkpt lat="46.538851" lon="11.381143"><ele>934.8</ele></trkpt>
      <trkpt lat="46.539013" lon="11.381502"><ele>938.1</ele></trkpt>
      <trkpt lat="46.539174" lon="11.381838"><ele>941.2</ele></trkpt>
      <trkpt lat="46.539336" lon="11.382152"><ele>944.2</ele></trkpt>
      <trkpt lat="46.539498" lon="11.382440"><ele>947.0</ele></trkpt>
      <trkpt lat="46.539660" lon="11.382703"><ele>949.7</ele></trkpt>
      <trkpt lat="46.539822" lon="11.382939"><ele>952.3</ele></trkpt>
      <trkpt lat="46.539984" lon="11.383147"><ele>954.7</ele></trkpt>
      <trkpt lat="46.540146" lon="11.383327"><ele>956.9</ele></trkpt>
      <trkpt lat="46.540308" lon="11.383478"><ele>959.1</ele></trkpt>
      <trkpt lat="46.540469" lon="11.383600"><ele>961.1</ele></trkpt>
      <trkpt lat="46.540631" lon="11.383693"><ele>963.0</ele></trkpt>
      <trkpt lat="46.540793" lon="11.383757"><ele>964.8</ele></trkpt>
      <trkpt lat="46.540955" lon="11.383793"><ele>966.6</ele></trkpt>
      <trkpt lat="46.541117" lon="11.383800"><ele>968.4</ele></trkpt>
      <trkpt lat="46.541279" lon="11.383781"><ele>970.1</ele></trkpt>
      <trkpt lat="46.541441" lon="11.383735"><ele>971.9</ele></trkpt>
      <trkpt lat="46.541603" lon="11.383665"><ele>973.7</ele></trkpt>
      <trkpt lat="46.541764" lon="11.383570"><ele>975.5</ele></trkpt>
      <trkpt lat="46.541926" lon="11.383453"><ele>977.4</ele></trkpt>
      <trkpt lat="46.542088" lon="11.383316"><ele>979.4</ele></trkpt>
      <trkpt lat="46.542250" lon="11.383160"><ele>981.4</ele></trkpt>
      <trkpt lat="46.542412" lon="11.382987"><ele>983.5</ele></trkpt>
      <trkpt lat="46.542574" lon="11.382798"><ele>985.6</ele></trkpt>
      <trkpt lat="46.542736" lon="11.382597"><ele>987.8</ele></trkpt>
      <trkpt lat="46.542898" lon="11.382386"><ele>990.0</ele></trkpt>
      <trkpt lat="46.543060" lon="11.382166"><ele>992.1</ele></trkpt>
      <trkpt lat="46.543221" lon="11.381940"><ele>994.3</ele></trkpt>
      <trkpt lat="46.543383" lon="11.381710"><ele>996.5</ele></trkpt>
      <trkpt lat="46.543545" lon="11.381479"><ele>998.7</ele></trkpt>
      <trkpt lat="46.543707" lon="11.381250"><ele>1000.8</ele></trkpt>
      <trkpt lat="46.543869" lon="11.381024"><ele>1002.8</ele></trkpt>
      <trkpt lat="46.544031" lon="11.380804"><ele>1004.8</ele></trkpt>
      <trkpt lat="46.544193" lon="11.380592"><ele>1006.8</ele></trkpt>
      <trkpt lat="46.544355" lon="11.380391"><ele>1008.6</ele></trkpt>
      <trkpt lat="46.544516" lon="11.380203"><ele>1010.4</ele></trkpt>
      <trkpt lat="46.544678" lon="11.380030"><ele>1012.1</ele></trkpt>
      <trkpt lat="46.544840" lon="11.379874"><ele>1013.8</ele></trkpt>
      <trkpt lat="46.545002" lon="11.379737"><ele>1015.3</ele></trkpt>
      <trkpt lat="46.545164" lon="11.379620"><ele>1016.8</ele></trkpt>
      <trkpt lat="46.545326" lon="11.379526"><ele>1018.1</ele></trkpt>
      <trkpt lat="46.545488" lon="11.379456"><ele>1019.5</ele></trkpt>
      <trkpt lat="46.545650" lon="11.379410"><ele>1020.7</ele></trkpt>
      <trkpt lat="46.545811" lon="11.379391"><ele>1022.0</ele></trkpt>
      <trkpt lat="46.545973" lon="11.379399"><ele>1023.2</ele></trkpt>
      <trkpt lat="46.546135" lon="11.379435"><ele>1024.4</ele></trkpt>
      <trkpt lat="46.546297" lon="11.379499"><ele>1025.6</ele></trkpt>
      <trkpt lat="46.546459" lon="11.379593"><ele>1026.8</ele></trkpt>
      <trkpt lat="46.546621" lon="11.379715"><ele>1028.1</ele></trkpt>
      <trkpt lat="46.546783" lon="11.379866"><ele>1029.4</ele></trkpt>
      <trkpt lat="46.546945" lon="11.380046"><ele>1030.8</ele></trkpt>
      <trkpt lat="46.547106" lon="11.380255"><ele>1032.2</ele></trkpt>
      <trkpt lat="46.547268" lon="11.380491"><ele>1033.7</ele></trkpt>
      <trkpt lat="46.547430" lon="11.380754"><ele>1035.2</ele></trkpt>
      <trkpt lat="46.547592" lon="11.381042"><ele>1036.8</ele></trkpt>
      <trkpt lat="46.547754" lon="11.381356"><ele>1038.4</ele></trkpt>
      <trkpt lat="46.547916" lon="11.381693"><ele>1040.1</ele></trkpt>
      <trkpt lat="46.548078" lon="11.382052"><ele>1041.7</ele></trkpt>
      <trkpt lat="46.548240" lon="11.382430"><ele>1043.4</ele></trkpt>
      <trkpt lat="46.548401" lon="11.382828"><ele>1045.1</ele></trkpt>
      <trkpt lat="46.548563" lon="11.383241"><ele>1046.8</ele></trkpt>
      <trkpt lat="46.548725" lon="11.383669"><ele>1048.5</ele></trkpt>
      <trkpt lat="46.548887" lon="11.384109"><ele>1050.2</ele></trkpt>
      <trkpt lat="46.549049" lon="11.384559"><ele>1051.9</ele></trkpt>
      <trkpt lat="46.549211" lon="11.385017"><ele>1053.5</ele></trkpt>
      <trkpt lat="46.549373" lon="11.385480"><ele>1055.2</ele></trkpt>
      <trkpt lat="46.549535" lon="11.385945"><ele>1056.8</ele></trkpt>
      <trkpt lat="46.549697" lon="11.386412"><ele>1058.4</ele></trkpt>
      <trkpt lat="46.549858" lon="11.386876"><ele>1060.0</ele></trkpt>
      <trkpt lat="46.550020" lon="11.387336"><ele>1061.6</ele></trkpt>
      <trkpt lat="46.550182" lon="11.387789"><ele>1063.1</ele></trkpt>
      <trkpt lat="46.550344" lon="11.388234"><ele>1064.7</ele></trkpt>
      <trkpt lat="46.550506" lon="11.388666"><ele>1066.2</ele></trkpt>
      <trkpt lat="46.550668" lon="11.389086"><ele>1067.7</ele></trkpt>
      <trkpt lat="46.550830" lon="11.389490"><ele>1069.2</ele></trkpt>
      <trkpt lat="46.550992" lon="11.389876"><ele>1070.7</ele></trkpt>
      <trkpt lat="46.551153" lon="11.390243"><ele>1072.2</ele></trkpt>
      <trkpt lat="46.551315" lon="11.390588"><ele>1070.3</ele></trkpt>
      <trkpt lat="46.551477" lon="11.390911"><ele>1068.5</ele></trkpt>
      <trkpt lat="46.551639" lon="11.391210"><ele>1066.9</ele></trkpt>
      <trkpt lat="46.551801" lon="11.387663"><ele>1053.5</ele></trkpt>
      <trkpt lat="46.551963" lon="11.387780"><ele>1052.6</ele></trkpt>
      <trkpt lat="46.552125" lon="11.387898"><ele>1051.8</ele></trkpt>
      <trkpt lat="46.552287" lon="11.388016"><ele>1050.9</ele></trkpt>
      <trkpt lat="46.552448" lon="11.388134"><ele>1050.1</ele></trkpt>
      <trkpt lat="46.552610" lon="11.388252"><ele>1049.2</ele></trkpt>
      <trkpt lat="46.552772" lon="11.388369"><ele>1048.4</ele></trkpt>
      <trkpt lat="46.552934" lon="11.388487"><ele>1047.6</ele></trkpt>
      <trkpt lat="46.553096" lon="11.388605"><ele>1046.8</ele></trkpt>
      <trkpt lat="46.553258" lon="11.388723"><ele>1046.0</ele></trkpt>
      <trkpt lat="46.553420" lon="11.388841"><ele>1045.2</ele></trkpt>
      <trkpt lat="46.553582" lon="11.388958"><ele>1044.3</ele></trkpt>
      <trkpt lat="46.553743" lon="11.389076"><ele>1043.5</ele></trkpt>
      <trkpt lat="46.553905" lon="11.389194"><ele>1042.7</ele></trkpt>
      <trkpt lat="46.554067" lon="11.389312"><ele>1041.9</ele></trkpt>
      <trkpt lat="46.554229" lon="11.389430"><ele>1041.1</ele></trkpt>
      <trkpt lat="46.554391" lon="11.389548"><ele>1040.3</ele></trkpt>
      <trkpt lat="46.554553" lon="11.389665"><ele>1039.5</ele></trkpt>
      <trkpt lat="46.554715" lon="11.389783"><ele>1038.7</ele></trkpt>
      <trkpt lat="46.554877" lon="11.389901"><ele>1037.8</ele></trkpt>
      <trkpt lat="46.555038" lon="11.390019"><ele>1037.0</ele></trkpt>
      <trkpt lat="46.555200" lon="11.390137"><ele>1036.2</ele></trkpt>
      <trkpt lat="46.555362" lon="11.390254"><ele>1035.3</ele></trkpt>
      <trkpt lat="46.555524" lon="11.390372"><ele>1034.4</ele></trkpt>
      <trkpt lat="46.555686" lon="11.390490"><ele>1033.6</ele></trkpt>
      <trkpt lat="46.555848" lon="11.390608"><ele>1032.7</ele></trkpt>
      <trkpt lat="46.556010" lon="11.390726"><ele>1031.8</ele></trkpt>
      <trkpt lat="46.556172" lon="11.390844"><ele>1030.8</ele></trkpt>
      <trkpt lat="46.556334" lon="11.390961"><ele>1029.9</ele></trkpt>
      <trkpt lat="46.556495" lon="11.391079"><ele>1029.0</ele></trkpt>
      <trkpt lat="46.556657" lon="11.391197"><ele>1028.0</ele></trkpt>
      <trkpt lat="46.556819" lon="11.391315"><ele>1027.0</ele></trkpt>
      <trkpt lat="46.556981" lon="11.391433"><ele>1026.0</ele></trkpt>
      <trkpt lat="46.557143" lon="11.391551"><ele>1025.0</ele></trkpt>
      <trkpt lat="46.557305" lon="11.391668"><ele>1024.0</ele></trkpt>
      <trkpt lat="46.557467" lon="11.391786"><ele>1022.9</ele></trkpt>
      <trkpt lat="46.557629" lon="11.391904"><ele>1021.8</ele></trkpt>
      <trkpt lat="46.557790" lon="11.392022"><ele>1020.7</ele></trkpt>
      <trkpt lat="46.557952" lon="11.392140"><ele>1019.6</ele></trkpt>
      <trkpt lat="46.558114" lon="11.392258"><ele>1018.5</ele></trkpt>
      <trkpt lat="46.558276" lon="11.392375"><ele>1017.3</ele></trkpt>
      <trkpt lat="46.558438" lon="11.392493"><ele>1016.1</ele></trkpt>
      <trkpt lat="46.558600" lon="11.392611"><ele>1014.9</ele></trkpt>
      <trkpt lat="46.558762" lon="11.392729"><ele>1013.7</ele></trkpt>
      <trkpt lat="46.558924" lon="11.392847"><ele>1012.4</ele></trkpt>
      <trkpt lat="46.559085" lon="11.392965"><ele>1011.2</ele></trkpt>
      <trkpt lat="46.559247" lon="11.393082"><ele>1009.9</ele></trkpt>
      <trkpt lat="46.559409" lon="11.393200"><ele>1008.6</ele></trkpt>
      <trkpt lat="46.559571" lon="11.393318"><ele>1007.2</ele></trkpt>
      <trkpt lat="46.559733" lon="11.393436"><ele>1005.9</ele></trkpt>
      <trkpt lat="46.559895" lon="11.393554"><ele>1004.5</ele></trkpt>
      <trkpt lat="46.560057" lon="11.393672"><ele>1003.1</ele></trkpt>
      <trkpt lat="46.560219" lon="11.393789"><ele>1001.7</ele></trkpt>
      <trkpt lat="46.560380" lon="11.393907"><ele>1000.3</ele></trkpt>
      <trkpt lat="46.560542" lon="11.394025"><ele>998.8</ele></trkpt>
      <trkpt lat="46.560704" lon="11.394143"><ele>997.4</ele></trkpt>
      <trkpt lat="46.560866" lon="11.394261"><ele>995.9</ele></trkpt>
      <trkpt lat="46.561028" lon="11.394379"><ele>994.4</ele></trkpt>
      <trkpt lat="46.561190" lon="11.394497"><ele>992.9</ele></trkpt>
      <trkpt lat="46.561352" lon="11.394614"><ele>991.4</ele></trkpt>
      <trkpt lat="46.561514" lon="11.394732"><ele>989.8</ele></trkpt>
      <trkpt lat="46.561675" lon="11.394850"><ele>988.3</ele></trkpt>
      <trkpt lat="46.561837" lon="11.394968"><ele>986.7</ele></trkpt>
      <trkpt lat="46.561999" lon="11.395086"><ele>985.2</ele></trkpt>
      <trkpt lat="46.562161" lon="11.395204"><ele>983.6</ele></trkpt>
      <trkpt lat="46.562323" lon="11.395322"><ele>982.0</ele></trkpt>
      <trkpt lat="46.562485" lon="11.395439"><ele>980.4</ele></trkpt>
      <trkpt lat="46.562647" lon="11.395557"><ele>978.8</ele></trkpt>
      <trkpt lat="46.562809" lon="11.395675"><ele>977.2</ele></trkpt>
      <trkpt lat="46.562970" lon="11.395793"><ele>975.6</ele></trkpt>
      <trkpt lat="46.563132" lon="11.395911"><ele>974.0</ele></trkpt>
      <trkpt lat="46.563294" lon="11.396029"><ele>972.4</ele></trkpt>
      <trkpt lat="46.563456" lon="11.396147"><ele>970.8</ele></trkpt>
      <trkpt lat="46.563618" lon="11.396264"><ele>969.2</ele></trkpt>
      <trkpt lat="46.563780" lon="11.396382"><ele>967.6</ele></trkpt>
      <trkpt lat="46.563942" lon="11.396500"><ele>966.0</ele></trkpt>
      <trkpt lat="46.564104" lon="11.396618"><ele>964.4</ele></trkpt>
      <trkpt lat="46.564266" lon="11.396736"><ele>962.8</ele></trkpt>
      <trkpt lat="46.564427" lon="11.396854"><ele>961.2</ele></trkpt>
      <trkpt lat="46.564589" lon="11.396972"><ele>959.6</ele></trkpt>
      <trkpt lat="46.564751" lon="11.397089"><ele>958.0</ele></trkpt>
      <trkpt lat="46.564913" lon="11.397207"><ele>956.5</ele></trkpt>
      <trkpt lat="46.565075" lon="11.397325"><ele>954.9</ele></trkpt>
      <trkpt lat="46.565237" lon="11.397443"><ele>953.4</ele></trkpt>
      <trkpt lat="46.565399" lon="11.397561"><ele>951.8</ele></trkpt>
      <trkpt lat="46.565561" lon="11.397679"><ele>950.3</ele></trkpt>
      <trkpt lat="46.565722" lon="11.397797"><ele>948.8</ele></trkpt>
      <trkpt lat="46.565884" lon="11.397914"><ele>947.3</ele></trkpt>
      <trkpt lat="46.566046" lon="11.398032"><ele>945.9</ele></trkpt>
      <trkpt lat="46.566208" lon="11.398150"><ele>944.4</ele></trkpt>
      <trkpt lat="46.566370" lon="11.398268"><ele>943.0</ele></trkpt>
      <trkpt lat="46.566532" lon="11.398386"><ele>941.6</ele></trkpt>
      <trkpt lat="46.566694" lon="11.398504"><ele>940.2</ele></trkpt>
      <trkpt lat="46.566856" lon="11.398622"><ele>938.8</ele></trkpt>
      <trkpt lat="46.567017" lon="11.398740"><ele>937.4</ele></trkpt>
      <trkpt lat="46.567179" lon="11.398857"><ele>936.1</ele></trkpt>
      <trkpt lat="46.567341" lon="11.398975"><ele>934.7</ele></trkpt>
      <trkpt lat="46.567503" lon="11.399093"><ele>933.4</ele></trkpt>
      <trkpt lat="46.567665" lon="11.399211"><ele>932.2</ele></trkpt>
      <trkpt lat="46.567827" lon="11.399329"><ele>930.9</ele></trkpt>
      <trkpt lat="46.567989" lon="11.399447"><ele>929.7</ele></trkpt>
      <trkpt lat="46.568151" lon="11.399565"><ele>928.4</ele></trkpt>
      <trkpt lat="46.568312" lon="11.399683"><ele>927.3</ele></trkpt>
      <trkpt lat="46.568474" lon="11.399800"><ele>926.1</ele></trkpt>
      <trkpt lat="46.568636" lon="11.399918"><ele>924.9</ele></trkpt>
      <trkpt lat="46.568798" lon="11.400036"><ele>923.8</ele></trkpt>
      <trkpt lat="46.568960" lon="11.400154"><ele>922.7</ele></trkpt>
      <trkpt lat="46.569122" lon="11.400272"><ele>921.6</ele></trkpt>
      <trkpt lat="46.569284" lon="11.400390"><ele>920.5</ele></trkpt>
      <trkpt lat="46.569446" lon="11.400508"><ele>919.5</ele></trkpt>
      <trkpt lat="46.569607" lon="11.400626"><ele>918.4</ele></trkpt>
      <trkpt lat="46.569769" lon="11.400744"><ele>917.4</ele></trkpt>
      <trkpt lat="46.569931" lon="11.400861"><ele>916.4</ele></trkpt>
      <trkpt lat="46.570093" lon="11.400979"><ele>915.5</ele></trkpt>
      <trkpt lat="46.570255" lon="11.401097"><ele>914.5</ele></trkpt>
      <trkpt lat="46.570417" lon="11.401215"><ele>913.5</ele></trkpt>
      <trkpt lat="46.570579" lon="11.401333"><ele>912.6</ele></trkpt>
      <trkpt lat="46.570741" lon="11.401451"><ele>911.7</ele></trkpt>
      <trkpt lat="46.570903" lon="11.401569"><ele>910.8</ele></trkpt>
      <trkpt lat="46.571064" lon="11.401687"><ele>909.9</ele></trkpt>
      <trkpt lat="46.571226" lon="11.401805"><ele>909.1</ele></trkpt>
      <trkpt lat="46.571388" lon="11.401922"><ele>908.2</ele></trkpt>
      <trkpt lat="46.571550" lon="11.402040"><ele>907.3</ele></trkpt>
      <trkpt lat="46.571712" lon="11.402158"><ele>906.5</ele></trkpt>
      <trkpt lat="46.571874" lon="11.402276"><ele>905.7</ele></trkpt>
      <trkpt lat="46.572036" lon="11.402394"><ele>904.8</ele></trkpt>
      <trkpt lat="46.572198" lon="11.402512"><ele>904.0</ele></trkpt>
      <trkpt lat="46.572359" lon="11.402630"><ele>903.2</ele></trkpt>
      <trkpt lat="46.572521" lon="11.402748"><ele>902.4</ele></trkpt>
      <trkpt lat="46.572683" lon="11.402866"><ele>901.6</ele></trkpt>
      <trkpt lat="46.572845" lon="11.402983"><ele>900.8</ele></trkpt>
      <trkpt lat="46.573007" lon="11.403101"><ele>900.0</ele></trkpt>
      <trkpt lat="46.573169" lon="11.403219"><ele>899.2</ele></trkpt>
      <trkpt lat="46.573331" lon="11.403337"><ele>898.4</ele></trkpt>
      <trkpt lat="46.573493" lon="11.403455"><ele>897.6</ele></trkpt>
      <trkpt lat="46.573654" lon="11.403573"><ele>896.7</ele></trkpt>
      <trkpt lat="46.573816" lon="11.403691"><ele>895.9</ele></trkpt>
      <trkpt lat="46.573978" lon="11.403809"><ele>895.1</ele></trkpt>
      <trkpt lat="46.574140" lon="11.403927"><ele>894.3</ele></trkpt>
      <trkpt lat="46.574302" lon="11.404045"><ele>893.4</ele></trkpt>
      <trkpt lat="46.574464" lon="11.404163"><ele>892.6</ele></trkpt>
      <trkpt lat="46.574626" lon="11.404280"><ele>891.7</ele></trkpt>
      <trkpt lat="46.574788" lon="11.404398"><ele>890.8</ele></trkpt>
      <trkpt lat="46.574949" lon="11.404516"><ele>890.0</ele></trkpt>
      <trkpt lat="46.575111" lon="11.404634"><ele>889.1</ele></trkpt>
      <trkpt lat="46.575273" lon="11.404752"><ele>888.2</ele></trkpt>
      <trkpt lat="46.575435" lon="11.404870"><ele>887.2</ele></trkpt>
      <trkpt lat="46.575597" lon="11.404988"><ele>886.3</ele></trkpt>
      <trkpt lat="46.575759" lon="11.405106"><ele>885.3</ele></trkpt>
      <trkpt lat="46.575921" lon="11.405224"><ele>884.4</ele></trkpt>
      <trkpt lat="46.576083" lon="11.405342"><ele>883.4</ele></trkpt>
      <trkpt lat="46.576244" lon="11.405460"><ele>882.4</ele></trkpt>
      <trkpt lat="46.576406" lon="11.405577"><ele>881.3</ele></trkpt>
      <trkpt lat="46.576568" lon="11.405695"><ele>880.3</ele></trkpt>
      <trkpt lat="46.576730" lon="11.405813"><ele>879.2</ele></trkpt>
      <trkpt lat="46.576892" lon="11.405931"><ele>878.1</ele></trkpt>
      <trkpt lat="46.577054" lon="11.406049"><ele>877.0</ele></trkpt>
      <trkpt lat="46.577216" lon="11.406167"><ele>875.9</ele></trkpt>
      <trkpt lat="46.577378" lon="11.406285"><ele>874.8</ele></trkpt>
      <trkpt lat="46.577540" lon="11.406403"><ele>873.6</ele></trkpt>
      <trkpt lat="46.577701" lon="11.406521"><ele>872.4</ele></trkpt>
      <trkpt lat="46.577863" lon="11.406639"><ele>871.2</ele></trkpt>
      <trkpt lat="46.578025" lon="11.406757"><ele>869.9</ele></trkpt>
      <trkpt lat="46.578187" lon="11.406875"><ele>868.7</ele></trkpt>
      <trkpt lat="46.578349" lon="11.406992"><ele>867.4</ele></trkpt>
      <trkpt lat="46.578511" lon="11.407110"><ele>866.1</ele></trkpt>
      <trkpt lat="46.578673" lon="11.407228"><ele>864.8</ele></trkpt>
      <trkpt lat="46.578835" lon="11.407346"><ele>863.5</ele></trkpt>
      <trkpt lat="46.578996" lon="11.407464"><ele>862.1</ele></trkpt>
      <trkpt lat="46.579158" lon="11.407582"><ele>860.7</ele></trkpt>
      <trkpt lat="46.579320" lon="11.407700"><ele>859.3</ele></trkpt>
      <trkpt lat="46.579482" lon="11.407818"><ele>857.9</ele></trkpt>
      <trkpt lat="46.579644" lon="11.407936"><ele>856.5</ele></trkpt>
      <trkpt lat="46.579806" lon="11.408054"><ele>855.0</ele></trkpt>
      <trkpt lat="46.579968" lon="11.408172"><ele>853.6</ele></trkpt>
      <trkpt lat="46.580130" lon="11.408290"><ele>852.1</ele></trkpt>
      <trkpt lat="46.580291" lon="11.408408"><ele>850.6</ele></trkpt>
      <trkpt lat="46.580453" lon="11.408526"><ele>849.1</ele></trkpt>
      <trkpt lat="46.580615" lon="11.408643"><ele>847.5</ele></trkpt>
      <trkpt lat="46.580777" lon="11.408761"><ele>846.0</ele></trkpt>
      <trkpt lat="46.580939" lon="11.408879"><ele>844.4</ele></trkpt>
      <trkpt lat="46.581101" lon="11.408997"><ele>842.9</ele></trkpt>
    </trkseg>
  </trk>
</gpx>
